SL-14 R/B               
1 16792U 86046B   26059.10816951  .00000482  00000+0  52756-4 0  9994
2 16792  82.4786  89.2380 0021558 258.9694 100.9098 14.85579433124986
SL-14 R/B               
1 16882U 86055B   26059.16510193  .00000490  00000+0  53591-4 0  9996
2 16882  82.5218 135.6255 0019022   8.5414  18.8809 14.85632275117956
AJISAI (EGS)            
1 16908U 86061A   26059.16532382 -.00000099  00000+0 -87363-5 0  9998
2 16908  50.0082 122.6361 0011246 262.4857 195.3405 12.44515471466816
COSMOS 1812             
1 17295U 87003A   26059.09437013  .00932796  55043-3  75537-3 0  9997
2 17295  82.4735 206.6231 0005880 288.8929  71.1718 16.14362705142931
SL-14 R/B               
1 17567U 87024B   26059.14506923  .00000450  00000+0  48513-4 0  9992
2 17567  82.5257 101.7367 0016754 294.4346  65.5122 14.86121543 86715
COSMOS 1833             
1 17589U 87027A   26059.09131427 -.00000125  00000+0 -40872-4 0  9997
2 17589  70.9234 346.1902 0024667 227.7259 132.1770 14.13056610  8962
SL-16 R/B               
1 17590U 87027B   26059.09279656 -.00000124  00000+0 -37497-4 0  9994
2 17590  71.0026 296.7194 0003892 162.1686 197.9575 14.17167129 13983
SL-14 R/B               
1 17912U 87038B   26059.13512736  .00000457  00000+0  50188-4 0  9997
2 17912  82.5019 305.8083 0018842 191.8318 168.2458 14.85359275 77814
COSMOS 1844             
1 17973U 87041A   26059.13667436 -.00000018  00000+0  15798-4 0  9998
2 17973  70.8990  54.3250 0029508  32.5059 327.7872 14.14553079  2231
SL-14 R/B               
1 18153U 87055B   26059.11375629  .00000624  00000+0  69041-4 0  9994
2 18153  82.5024 358.0537 0021887  48.2162 312.0920 14.85615463 68511
COSMOS 1867             
1 18187U 87060A   26059.14967868 -.00000041  00000+0  22383-4 0  9994
2 18187  65.0122 333.4212 0014353 278.0534  81.8922 14.31501248 18576
SL-14 R/B               
1 18749U 88001B   26059.10837740  .00000605  00000+0  67170-4 0  9993
2 18749  82.5137 204.3701 0016584 270.1350  89.7966 14.85513628 40604
