CCSDS_OMM_VERS = 2.0
CREATION_DATE  = 
ORIGINATOR     = 

OBJECT_NAME    = SL-14 R/B
OBJECT_ID      = 1986-046B
CENTER_NAME    = EARTH
REF_FRAME      = TEME
TIME_SYSTEM    = UTC
MEAN_ELEMENT_THEORY = SGP/SGP4

EPOCH          = 2026-02-28T02:35:45.845664
MEAN_MOTION    = 14.85579433
ECCENTRICITY   = .0021558
INCLINATION    = 82.4786
RA_OF_ASC_NODE = 89.2380
ARG_OF_PERICENTER = 258.9694
MEAN_ANOMALY   = 100.9098

EPHEMERIS_TYPE = 0
CLASSIFICATION_TYPE = U
NORAD_CAT_ID   = 16792
ELEMENT_SET_NO = 999
REV_AT_EPOCH   = 12498
BSTAR          = .52756E-4
MEAN_MOTION_DOT = .482E-5
MEAN_MOTION_DDOT = 0

CCSDS_OMM_VERS = 2.0
CREATION_DATE  = 
ORIGINATOR     = 

OBJECT_NAME    = SL-14 R/B
OBJECT_ID      = 1986-055B
CENTER_NAME    = EARTH
REF_FRAME      = TEME
TIME_SYSTEM    = UTC
MEAN_ELEMENT_THEORY = SGP/SGP4

EPOCH          = 2026-02-28T03:57:44.806752
MEAN_MOTION    = 14.85632275
ECCENTRICITY   = .0019022
INCLINATION    = 82.5218
RA_OF_ASC_NODE = 135.6255
ARG_OF_PERICENTER = 8.5414
MEAN_ANOMALY   = 18.8809

EPHEMERIS_TYPE = 0
CLASSIFICATION_TYPE = U
NORAD_CAT_ID   = 16882
ELEMENT_SET_NO = 999
REV_AT_EPOCH   = 11795
BSTAR          = .53591E-4
MEAN_MOTION_DOT = .49E-5
MEAN_MOTION_DDOT = 0

CCSDS_OMM_VERS = 2.0
CREATION_DATE  = 
ORIGINATOR     = 

OBJECT_NAME    = AJISAI (EGS)
OBJECT_ID      = 1986-061A
CENTER_NAME    = EARTH
REF_FRAME      = TEME
TIME_SYSTEM    = UTC
MEAN_ELEMENT_THEORY = SGP/SGP4

EPOCH          = 2026-02-28T03:58:03.978048
MEAN_MOTION    = 12.44515471
ECCENTRICITY   = .0011246
INCLINATION    = 50.0082
RA_OF_ASC_NODE = 122.6361
ARG_OF_PERICENTER = 262.4857
MEAN_ANOMALY   = 195.3405

EPHEMERIS_TYPE = 0
CLASSIFICATION_TYPE = U
NORAD_CAT_ID   = 16908
ELEMENT_SET_NO = 999
REV_AT_EPOCH   = 46681
BSTAR          = -.87363E-5
MEAN_MOTION_DOT = -.99E-6
MEAN_MOTION_DDOT = 0

CCSDS_OMM_VERS = 2.0
CREATION_DATE  = 
ORIGINATOR     = 

OBJECT_NAME    = COSMOS 1812
OBJECT_ID      = 1987-003A
CENTER_NAME    = EARTH
REF_FRAME      = TEME
TIME_SYSTEM    = UTC
MEAN_ELEMENT_THEORY = SGP/SGP4

EPOCH          = 2026-02-28T02:15:53.579232
MEAN_MOTION    = 16.14362705
ECCENTRICITY   = .000588
INCLINATION    = 82.4735
RA_OF_ASC_NODE = 206.6231
ARG_OF_PERICENTER = 288.8929
MEAN_ANOMALY   = 71.1718

EPHEMERIS_TYPE = 0
CLASSIFICATION_TYPE = U
NORAD_CAT_ID   = 17295
ELEMENT_SET_NO = 999
REV_AT_EPOCH   = 14293
BSTAR          = .75537E-3
MEAN_MOTION_DOT = .932796E-2
MEAN_MOTION_DDOT = .55043E-3

CCSDS_OMM_VERS = 2.0
CREATION_DATE  = 
ORIGINATOR     = 

OBJECT_NAME    = SL-14 R/B
OBJECT_ID      = 1987-024B
CENTER_NAME    = EARTH
REF_FRAME      = TEME
TIME_SYSTEM    = UTC
MEAN_ELEMENT_THEORY = SGP/SGP4

EPOCH          = 2026-02-28T03:28:53.981472
MEAN_MOTION    = 14.86121543
ECCENTRICITY   = .0016754
INCLINATION    = 82.5257
RA_OF_ASC_NODE = 101.7367
ARG_OF_PERICENTER = 294.4346
MEAN_ANOMALY   = 65.5122

EPHEMERIS_TYPE = 0
CLASSIFICATION_TYPE = U
NORAD_CAT_ID   = 17567
ELEMENT_SET_NO = 999
REV_AT_EPOCH   = 8671
BSTAR          = .48513E-4
MEAN_MOTION_DOT = .45E-5
MEAN_MOTION_DDOT = 0

CCSDS_OMM_VERS = 2.0
CREATION_DATE  = 
ORIGINATOR     = 

OBJECT_NAME    = COSMOS 1833
OBJECT_ID      = 1987-027A
CENTER_NAME    = EARTH
REF_FRAME      = TEME
TIME_SYSTEM    = UTC
MEAN_ELEMENT_THEORY = SGP/SGP4

EPOCH          = 2026-02-28T02:11:29.552928
MEAN_MOTION    = 14.13056610
ECCENTRICITY   = .0024667
INCLINATION    = 70.9234
RA_OF_ASC_NODE = 346.1902
ARG_OF_PERICENTER = 227.7259
MEAN_ANOMALY   = 132.1770

EPHEMERIS_TYPE = 0
CLASSIFICATION_TYPE = U
NORAD_CAT_ID   = 17589
ELEMENT_SET_NO = 999
REV_AT_EPOCH   = 896
BSTAR          = -.40872E-4
MEAN_MOTION_DOT = -.125E-5
MEAN_MOTION_DDOT = 0

CCSDS_OMM_VERS = 2.0
CREATION_DATE  = 
ORIGINATOR     = 

OBJECT_NAME    = SL-16 R/B
OBJECT_ID      = 1987-027B
CENTER_NAME    = EARTH
REF_FRAME      = TEME
TIME_SYSTEM    = UTC
MEAN_ELEMENT_THEORY = SGP/SGP4

EPOCH          = 2026-02-28T02:13:37.622784
MEAN_MOTION    = 14.17167129
ECCENTRICITY   = .0003892
INCLINATION    = 71.0026
RA_OF_ASC_NODE = 296.7194
ARG_OF_PERICENTER = 162.1686
MEAN_ANOMALY   = 197.9575

EPHEMERIS_TYPE = 0
CLASSIFICATION_TYPE = U
NORAD_CAT_ID   = 17590
ELEMENT_SET_NO = 999
REV_AT_EPOCH   = 1398
BSTAR          = -.37497E-4
MEAN_MOTION_DOT = -.124E-5
MEAN_MOTION_DDOT = 0

CCSDS_OMM_VERS = 2.0
CREATION_DATE  = 
ORIGINATOR     = 

OBJECT_NAME    = SL-14 R/B
OBJECT_ID      = 1987-038B
CENTER_NAME    = EARTH
REF_FRAME      = TEME
TIME_SYSTEM    = UTC
MEAN_ELEMENT_THEORY = SGP/SGP4

EPOCH          = 2026-02-28T03:14:35.003904
MEAN_MOTION    = 14.85359275
ECCENTRICITY   = .0018842
INCLINATION    = 82.5019
RA_OF_ASC_NODE = 305.8083
ARG_OF_PERICENTER = 191.8318
MEAN_ANOMALY   = 168.2458

EPHEMERIS_TYPE = 0
CLASSIFICATION_TYPE = U
NORAD_CAT_ID   = 17912
ELEMENT_SET_NO = 999
REV_AT_EPOCH   = 7781
BSTAR          = .50188E-4
MEAN_MOTION_DOT = .457E-5
MEAN_MOTION_DDOT = 0

CCSDS_OMM_VERS = 2.0
CREATION_DATE  = 
ORIGINATOR     = 

OBJECT_NAME    = COSMOS 1844
OBJECT_ID      = 1987-041A
CENTER_NAME    = EARTH
REF_FRAME      = TEME
TIME_SYSTEM    = UTC
MEAN_ELEMENT_THEORY = SGP/SGP4

EPOCH          = 2026-02-28T03:16:48.664704
MEAN_MOTION    = 14.14553079
ECCENTRICITY   = .0029508
INCLINATION    = 70.8990
RA_OF_ASC_NODE = 54.3250
ARG_OF_PERICENTER = 32.5059
MEAN_ANOMALY   = 327.7872

EPHEMERIS_TYPE = 0
CLASSIFICATION_TYPE = U
NORAD_CAT_ID   = 17973
ELEMENT_SET_NO = 999
REV_AT_EPOCH   = 223
BSTAR          = .15798E-4
MEAN_MOTION_DOT = -.18E-6
MEAN_MOTION_DDOT = 0

CCSDS_OMM_VERS = 2.0
CREATION_DATE  = 
ORIGINATOR     = 

OBJECT_NAME    = SL-14 R/B
OBJECT_ID      = 1987-055B
CENTER_NAME    = EARTH
REF_FRAME      = TEME
TIME_SYSTEM    = UTC
MEAN_ELEMENT_THEORY = SGP/SGP4

EPOCH          = 2026-02-28T02:43:48.543456
MEAN_MOTION    = 14.85615463
ECCENTRICITY   = .0021887
INCLINATION    = 82.5024
RA_OF_ASC_NODE = 358.0537
ARG_OF_PERICENTER = 48.2162
MEAN_ANOMALY   = 312.0920

EPHEMERIS_TYPE = 0
CLASSIFICATION_TYPE = U
NORAD_CAT_ID   = 18153
ELEMENT_SET_NO = 999
REV_AT_EPOCH   = 6851
BSTAR          = .69041E-4
MEAN_MOTION_DOT = .624E-5
MEAN_MOTION_DDOT = 0

CCSDS_OMM_VERS = 2.0
CREATION_DATE  = 
ORIGINATOR     = 

OBJECT_NAME    = COSMOS 1867
OBJECT_ID      = 1987-060A
CENTER_NAME    = EARTH
REF_FRAME      = TEME
TIME_SYSTEM    = UTC
MEAN_ELEMENT_THEORY = SGP/SGP4

EPOCH          = 2026-02-28T03:35:32.237952
MEAN_MOTION    = 14.31501248
ECCENTRICITY   = .0014353
INCLINATION    = 65.0122
RA_OF_ASC_NODE = 333.4212
ARG_OF_PERICENTER = 278.0534
MEAN_ANOMALY   = 81.8922

EPHEMERIS_TYPE = 0
CLASSIFICATION_TYPE = U
NORAD_CAT_ID   = 18187
ELEMENT_SET_NO = 999
REV_AT_EPOCH   = 1857
BSTAR          = .22383E-4
MEAN_MOTION_DOT = -.41E-6
MEAN_MOTION_DDOT = 0

CCSDS_OMM_VERS = 2.0
CREATION_DATE  = 
ORIGINATOR     = 

OBJECT_NAME    = SL-14 R/B
OBJECT_ID      = 1988-001B
CENTER_NAME    = EARTH
REF_FRAME      = TEME
TIME_SYSTEM    = UTC
MEAN_ELEMENT_THEORY = SGP/SGP4

EPOCH          = 2026-02-28T02:36:03.807360
MEAN_MOTION    = 14.85513628
ECCENTRICITY   = .0016584
INCLINATION    = 82.5137
RA_OF_ASC_NODE = 204.3701
ARG_OF_PERICENTER = 270.1350
MEAN_ANOMALY   = 89.7966

EPHEMERIS_TYPE = 0
CLASSIFICATION_TYPE = U
NORAD_CAT_ID   = 18749
ELEMENT_SET_NO = 999
REV_AT_EPOCH   = 4060
BSTAR          = .6717E-4
MEAN_MOTION_DOT = .605E-5
MEAN_MOTION_DDOT = 0

